start=new Date('2023-01-31T00:00:00.000Z').valueOf();
sats=[{"COUNTRY_CODE":"US","OBJECT_NAME":"STARLINK-5210","MEAN_MOTION_DDOT":"0.0000000000000","MEAN_ELEMENT_THEORY":"SGP4","BSTAR":"-0.00002965200000","MEAN_MOTION_DOT":"-0.00000760","REF_FRAME":"TEME","OBJECT_ID":"2022-136AH","EPOCH":"2023-01-30T22:32:15.502848","DECAY_DATE":null,"ECCENTRICITY":"0.00013720","CLASSIFICATION_TYPE":"U","TLE_LINE2":"2 54082  53.2180  23.9018 0001372  97.1276 262.9873 15.08836362 15823","PERIOD":"95.438","PERIAPSIS":"538.807","LAUNCH_DATE":"2022-10-20","CENTER_NAME":"EARTH","INCLINATION":"53.2180","SEMIMAJOR_AXIS":"6917.892","MEAN_ANOMALY":"262.9873","OBJECT_TYPE":"PAYLOAD","SITE":"AFETR","ELEMENT_SET_NO":"999","MEAN_MOTION":"15.08836362","GP_ID":"224056425","REV_AT_EPOCH":"1582","ARG_OF_PERICENTER":"97.1276","FILE":"3765849","EPHEMERIS_TYPE":"0","RCS_SIZE":"LARGE","RA_OF_ASC_NODE":"23.9018","TIME_SYSTEM":"UTC","APOAPSIS":"540.706","NORAD_CAT_ID":"54082","TLE_LINE1":"1 54082U 22136AH  23030.93906832 -.00000760  00000-0 -29652-4 0  9994"},{"MEAN_MOTION":"15.08839967","REV_AT_EPOCH":"1574","GP_ID":"223999947","ARG_OF_PERICENTER":"92.3322","EPHEMERIS_TYPE":"0","FILE":"3765576","RCS_SIZE":"LARGE","TIME_SYSTEM":"UTC","RA_OF_ASC_NODE":"26.2143","NORAD_CAT_ID":"54083","APOAPSIS":"540.562","TLE_LINE1":"1 54083U 22136AJ  23030.39808787  .00000041  00000-0  20643-4 0  9996","OBJECT_TYPE":"PAYLOAD","SITE":"AFETR","ELEMENT_SET_NO":"999","SEMIMAJOR_AXIS":"6917.880","MEAN_ANOMALY":"267.7805","LAUNCH_DATE":"2022-10-20","PERIAPSIS":"538.929","CENTER_NAME":"EARTH","INCLINATION":"53.2180","TLE_LINE2":"2 54083  53.2180  26.2143 0001180  92.3322 267.7805 15.08839967 15748","PERIOD":"95.438","ECCENTRICITY":"0.00011800","CLASSIFICATION_TYPE":"U","REF_FRAME":"TEME","EPOCH":"2023-01-30T09:33:14.791968","OBJECT_ID":"2022-136AJ","DECAY_DATE":null,"COUNTRY_CODE":"US","MEAN_MOTION_DDOT":"0.0000000000000","OBJECT_NAME":"STARLINK-5178","MEAN_ELEMENT_THEORY":"SGP4","BSTAR":"0.00002064300000","MEAN_MOTION_DOT":"0.00000041"},{"COUNTRY_CODE":"US","MEAN_ELEMENT_THEORY":"SGP4","MEAN_MOTION_DDOT":"0.0000000000000","OBJECT_NAME":"STARLINK-5183","BSTAR":"0.00006304100000","MEAN_MOTION_DOT":"0.00000716","REF_FRAME":"TEME","EPOCH":"2023-01-30T08:04:33.117024","OBJECT_ID":"2022-136AK","DECAY_DATE":null,"ECCENTRICITY":"0.00012990","CLASSIFICATION_TYPE":"U","TLE_LINE2":"2 54084  53.2181  26.5392 0001299  91.1965 268.9176 15.08840773 15730","PERIOD":"95.438","PERIAPSIS":"538.844","LAUNCH_DATE":"2022-10-20","CENTER_NAME":"EARTH","INCLINATION":"53.2181","SEMIMAJOR_AXIS":"6917.878","MEAN_ANOMALY":"268.9176","OBJECT_TYPE":"PAYLOAD","SITE":"AFETR","ELEMENT_SET_NO":"999","MEAN_MOTION":"15.08840773","GP_ID":"223998730","ARG_OF_PERICENTER":"91.1965","REV_AT_EPOCH":"1573","FILE":"3765576","EPHEMERIS_TYPE":"0","RA_OF_ASC_NODE":"26.5392","RCS_SIZE":"LARGE","TIME_SYSTEM":"UTC","APOAPSIS":"540.642","NORAD_CAT_ID":"54084","TLE_LINE1":"1 54084U 22136AK  23030.33649441  .00000716  00000-0  63041-4 0  9999"},{"BSTAR":"0.00010172000000","MEAN_MOTION_DOT":"0.00001332","COUNTRY_CODE":"US","MEAN_MOTION_DDOT":"0.0000000000000","MEAN_ELEMENT_THEORY":"SGP4","OBJECT_NAME":"STARLINK-5166","REF_FRAME":"TEME","EPOCH":"2023-01-30T09:27:56.330208","OBJECT_ID":"2022-136AL","DECAY_DATE":null,"ECCENTRICITY":"0.00010950","CLASSIFICATION_TYPE":"U","PERIOD":"95.437","TLE_LINE2":"2 54085  53.2180  26.1910 0001095  96.6511 263.4606 15.08843243 15747","INCLINATION":"53.2180","PERIAPSIS":"538.978","LAUNCH_DATE":"2022-10-20","CENTER_NAME":"EARTH","MEAN_ANOMALY":"263.4606","SEMIMAJOR_AXIS":"6917.870","OBJECT_TYPE":"PAYLOAD","SITE":"AFETR","ELEMENT_SET_NO":"999","RCS_SIZE":"LARGE","TIME_SYSTEM":"UTC","RA_OF_ASC_NODE":"26.1910","APOAPSIS":"540.493","NORAD_CAT_ID":"54085","TLE_LINE1":"1 54085U 22136AL  23030.39440197  .00001332  00000-0  10172-3 0  9994","MEAN_MOTION":"15.08843243","REV_AT_EPOCH":"1574","GP_ID":"223998478","ARG_OF_PERICENTER":"96.6511","EPHEMERIS_TYPE":"0","FILE":"3765576"},{"ELEMENT_SET_NO":"999","OBJECT_TYPE":"PAYLOAD","SITE":"AFETR","TLE_LINE1":"1 54086U 22136AM  23031.08334491 -.00948545  00000-0 -62898-1 0  9999","RCS_SIZE":"LARGE","RA_OF_ASC_NODE":"8.1883","TIME_SYSTEM":"UTC","NORAD_CAT_ID":"54086","APOAPSIS":"537.776","FILE":"3765832","EPHEMERIS_TYPE":"0","MEAN_MOTION":"15.09808858","GP_ID":"224031031","ARG_OF_PERICENTER":"84.2781","REV_AT_EPOCH":"1652","INCLINATION":"53.2118","CENTER_NAME":"EARTH","LAUNCH_DATE":"2022-10-20","PERIAPSIS":"535.795","MEAN_ANOMALY":"36.4885","SEMIMAJOR_AXIS":"6914.921","CLASSIFICATION_TYPE":"U","ECCENTRICITY":"0.00014330","PERIOD":"95.376","TLE_LINE2":"2 54086  53.2118   8.1883 0001433  84.2781  36.4885 15.09808858 16524","BSTAR":"-0.06289800000000","MEAN_MOTION_DOT":"-0.00948545","COUNTRY_CODE":"US","MEAN_MOTION_DDOT":"0.0000000000000","MEAN_ELEMENT_THEORY":"SGP4","OBJECT_NAME":"STARLINK-5211","DECAY_DATE":null,"REF_FRAME":"TEME","OBJECT_ID":"2022-136AM","EPOCH":"2023-01-31T02:00:01.000224"},{"NORAD_CAT_ID":"54087","APOAPSIS":"540.647","RCS_SIZE":"MEDIUM","TIME_SYSTEM":"UTC","RA_OF_ASC_NODE":"26.1683","TLE_LINE1":"1 54087U 22136AN  23030.39071723  .00000609  00000-0  56330-4 0  9994","GP_ID":"223999457","REV_AT_EPOCH":"1574","ARG_OF_PERICENTER":"92.2885","MEAN_MOTION":"15.08842801","FILE":"3765576","EPHEMERIS_TYPE":"0","SITE":"AFETR","OBJECT_TYPE":"PAYLOAD","ELEMENT_SET_NO":"999","MEAN_ANOMALY":"267.8258","SEMIMAJOR_AXIS":"6917.872","INCLINATION":"53.2174","PERIAPSIS":"538.826","LAUNCH_DATE":"2022-10-20","CENTER_NAME":"EARTH","PERIOD":"95.437","TLE_LINE2":"2 54087  53.2174  26.1683 0001316  92.2885 267.8258 15.08842801 15741","ECCENTRICITY":"0.00013160","CLASSIFICATION_TYPE":"U","EPOCH":"2023-01-30T09:22:37.968672","OBJECT_ID":"2022-136AN","REF_FRAME":"TEME","DECAY_DATE":null,"MEAN_MOTION_DOT":"0.00000609","BSTAR":"0.00005633000000","OBJECT_NAME":"STARLINK-5184","MEAN_MOTION_DDOT":"0.0000000000000","MEAN_ELEMENT_THEORY":"SGP4","COUNTRY_CODE":"US"},{"OBJECT_NAME":"STARLINK-5153","MEAN_MOTION_DDOT":"0.0000000000000","MEAN_ELEMENT_THEORY":"SGP4","COUNTRY_CODE":"US","MEAN_MOTION_DOT":"0.00000360","BSTAR":"0.00004068700000","DECAY_DATE":null,"EPOCH":"2023-01-30T09:38:33.033408","OBJECT_ID":"2022-136AP","REF_FRAME":"TEME","CLASSIFICATION_TYPE":"U","ECCENTRICITY":"0.00011860","TLE_LINE2":"2 54088  53.2182  26.2373 0001186  89.2396 270.8732 15.08843609 15744","PERIOD":"95.437","CENTER_NAME":"EARTH","LAUNCH_DATE":"2022-10-20","PERIAPSIS":"538.914","INCLINATION":"53.2182","SEMIMAJOR_AXIS":"6917.869","MEAN_ANOMALY":"270.8732","ELEMENT_SET_NO":"999","SITE":"AFETR","OBJECT_TYPE":"PAYLOAD","FILE":"3765576","EPHEMERIS_TYPE":"0","GP_ID":"223998232","ARG_OF_PERICENTER":"89.2396","REV_AT_EPOCH":"1574","MEAN_MOTION":"15.08843609","TLE_LINE1":"1 54088U 22136AP  23030.40177122  .00000360  00000-0  40687-4 0  9999","APOAPSIS":"540.555","NORAD_CAT_ID":"54088","RCS_SIZE":"LARGE","RA_OF_ASC_NODE":"26.2373","TIME_SYSTEM":"UTC"},{"MEAN_MOTION_DDOT":"0.0000000000000","OBJECT_NAME":"STARLINK-5143","MEAN_ELEMENT_THEORY":"SGP4","COUNTRY_CODE":"US","MEAN_MOTION_DOT":"-0.00000442","BSTAR":"-0.00000969380000","DECAY_DATE":null,"OBJECT_ID":"2022-136AQ","EPOCH":"2023-01-30T05:55:57.379296","REF_FRAME":"TEME","CLASSIFICATION_TYPE":"U","ECCENTRICITY":"0.00012430","TLE_LINE2":"2 54089  53.2180  26.6939 0001243  93.0344 267.0791 15.08834541 15721","PERIOD":"95.438","CENTER_NAME":"EARTH","PERIAPSIS":"538.902","LAUNCH_DATE":"2022-10-20","INCLINATION":"53.2180","SEMIMAJOR_AXIS":"6917.897","MEAN_ANOMALY":"267.0791","ELEMENT_SET_NO":"999","SITE":"AFETR","OBJECT_TYPE":"PAYLOAD","FILE":"3765576","EPHEMERIS_TYPE":"0","GP_ID":"223998977","REV_AT_EPOCH":"1572","ARG_OF_PERICENTER":"93.0344","MEAN_MOTION":"15.08834541","TLE_LINE1":"1 54089U 22136AQ  23030.24719189 -.00000442  00000-0 -96938-5 0  9991","APOAPSIS":"540.622","NORAD_CAT_ID":"54089","RA_OF_ASC_NODE":"26.6939","RCS_SIZE":"LARGE","TIME_SYSTEM":"UTC"},{"PERIOD":"95.438","TLE_LINE2":"2 54090  53.2174  26.1215 0001415  84.4196 275.6957 15.08840327 15748","CLASSIFICATION_TYPE":"U","ECCENTRICITY":"0.00014150","DECAY_DATE":null,"REF_FRAME":"TEME","EPOCH":"2023-01-30T09:12:01.724256","OBJECT_ID":"2022-136AR","BSTAR":"0.00000944320000","MEAN_MOTION_DOT":"-0.00000138","COUNTRY_CODE":"US","OBJECT_NAME":"STARLINK-5177","MEAN_MOTION_DDOT":"0.0000000000000","MEAN_ELEMENT_THEORY":"SGP4","TLE_LINE1":"1 54090U 22136AR  23030.38335329 -.00000138  00000-0  94432-5 0  9996","RCS_SIZE":"LARGE","RA_OF_ASC_NODE":"26.1215","TIME_SYSTEM":"UTC","APOAPSIS":"540.723","NORAD_CAT_ID":"54090","EPHEMERIS_TYPE":"0","FILE":"3765576","MEAN_MOTION":"15.08840327","GP_ID":"223999223","REV_AT_EPOCH":"1574","ARG_OF_PERICENTER":"84.4196","ELEMENT_SET_NO":"999","OBJECT_TYPE":"PAYLOAD","SITE":"AFETR","MEAN_ANOMALY":"275.6957","SEMIMAJOR_AXIS":"6917.879","INCLINATION":"53.2174","CENTER_NAME":"EARTH","LAUNCH_DATE":"2022-10-20","PERIAPSIS":"538.766"},{"NORAD_CAT_ID":"54091","APOAPSIS":"540.575","TIME_SYSTEM":"UTC","RCS_SIZE":"LARGE","RA_OF_ASC_NODE":"26.0436","TLE_LINE1":"1 54091U 22136AS  23030.36957225 -.00000159  00000-0  81141-5 0  9996","ARG_OF_PERICENTER":"95.4050","GP_ID":"223999948","REV_AT_EPOCH":"1574","MEAN_MOTION":"15.08839642","FILE":"3765576","EPHEMERIS_TYPE":"0","SITE":"AFETR","OBJECT_TYPE":"PAYLOAD","ELEMENT_SET_NO":"999","MEAN_ANOMALY":"264.7078","SEMIMAJOR_AXIS":"6917.881","INCLINATION":"53.2176","LAUNCH_DATE":"2022-10-20","PERIAPSIS":"538.918","CENTER_NAME":"EARTH","PERIOD":"95.438","TLE_LINE2":"2 54091  53.2176  26.0436 0001197  95.4050 264.7078 15.08839642 15744","ECCENTRICITY":"0.00011970","CLASSIFICATION_TYPE":"U","EPOCH":"2023-01-30T08:52:11.042400","OBJECT_ID":"2022-136AS","REF_FRAME":"TEME","DECAY_DATE":null,"MEAN_MOTION_DOT":"-0.00000159","BSTAR":"0.00000811410000","OBJECT_NAME":"STARLINK-5221","MEAN_MOTION_DDOT":"0.0000000000000","MEAN_ELEMENT_THEORY":"SGP4","COUNTRY_CODE":"US"}];
